[{"OBJECT_NAME":"STARLINK-3582","OBJECT_ID":"2022-022X","EPOCH":"2026-03-09T22:56:15.036576","MEAN_MOTION":15.17112073,"ECCENTRICITY":0.00019498,"INCLINATION":53.2143,"RA_OF_ASC_NODE":3.953,"ARG_OF_PERICENTER":143.0365,"MEAN_ANOMALY":217.0766,"EPHEMERIS_TYPE":0,"CLASSIFICATION_TYPE":"U","NORAD_CAT_ID":51873,"ELEMENT_SET_NO":999,"REV_AT_EPOCH":22321,"BSTAR":0.0018716326,"MEAN_MOTION_DOT":0.00037432,"MEAN_MOTION_DDOT":0},{"OBJECT_NAME":"TRANSPORTER-15 OBJECT AA","OBJECT_ID":"2025-276AA","EPOCH":"2026-03-09T17:09:28.865952","MEAN_MOTION":15.18098016,"ECCENTRICITY":0.00045616,"INCLINATION":97.4256,"RA_OF_ASC_NODE":143.8764,"ARG_OF_PERICENTER":6.1284,"MEAN_ANOMALY":354.0005,"EPHEMERIS_TYPE":0,"CLASSIFICATION_TYPE":"U","NORAD_CAT_ID":66690,"ELEMENT_SET_NO":999,"REV_AT_EPOCH":1531,"BSTAR":0.00028455511,"MEAN_MOTION_DOT":5.737e-5,"MEAN_MOTION_DDOT":0}]
